[{"OBJECT_NAME":"STARLINK-4695","OBJECT_ID":"2022-107U","EPOCH":"2026-03-09T17:11:15.593280","MEAN_MOTION":15.0883119,"ECCENTRICITY":0.00013568,"INCLINATION":53.2168,"RA_OF_ASC_NODE":254.2692,"ARG_OF_PERICENTER":70.9322,"MEAN_ANOMALY":289.1817,"EPHEMERIS_TYPE":0,"CLASSIFICATION_TYPE":"U","NORAD_CAT_ID":53718,"ELEMENT_SET_NO":999,"REV_AT_EPOCH":19440,"BSTAR":0.00011696627,"MEAN_MOTION_DOT":1.574e-5,"MEAN_MOTION_DDOT":0},{"OBJECT_NAME":"PACE","OBJECT_ID":"2014-033N","EPOCH":"2026-03-09T22:47:44.809152","MEAN_MOTION":15.09745465,"ECCENTRICITY":0.00061206,"INCLINATION":98.125,"RA_OF_ASC_NODE":67.7953,"ARG_OF_PERICENTER":179.3374,"MEAN_ANOMALY":180.7863,"EPHEMERIS_TYPE":0,"CLASSIFICATION_TYPE":"U","NORAD_CAT_ID":40022,"ELEMENT_SET_NO":999,"REV_AT_EPOCH":63805,"BSTAR":0.00051174262,"MEAN_MOTION_DOT":8.193e-5,"MEAN_MOTION_DDOT":0}]
